NOAA 15                 
1 25338U 98030A   25064.53704736  .00000287  00000+0  13607-3 0  9999
2 25338  98.5465  91.9343 0009116 281.1776  78.8380 14.26900538394703
DMSP 5D-3 F16 (USA 172) 
1 28054U 03048A   25064.51966240  .00000301  00000+0  18129-3 0  9991
2 28054  99.0197  79.4609 0007860  41.0642  75.0936 14.14297002103216
NOAA 18                 
1 28654U 05018A   25064.42940608  .00000339  00000+0  20342-3 0  9997
2 28654  98.8480 144.9742 0014717  46.2149 314.0238 14.13533080 20169
METEOSAT-9 (MSG-2)      
1 28912U 05049B   25064.03447645  .00000119  00000+0  00000+0 0  9999
2 28912   8.2890  58.5877 0000586 338.7533 183.7970  1.00275914 70373
EWS-G1 (GOES 13)        
1 29155U 06018A   25064.04558361 -.00000068  00000+0  00000+0 0  9999
2 29155   3.3085  82.1500 0065978 261.4731 219.9565  0.98830944 68745
DMSP 5D-3 F17 (USA 191) 
1 29522U 06050A   25064.53271595  .00000316  00000+0  18643-3 0  9999
2 29522  98.7431  75.7182 0009221 319.3577  40.6907 14.14769625946148
FENGYUN 3A              
1 32958U 08026A   25064.44648438  .00000323  00000+0  17408-3 0  9991
2 32958  98.6378  10.4889 0009560  44.1711 316.0227 14.19381900869019
NOAA 19                 
1 33591U 09005A   25064.49091176  .00000300  00000+0  18416-3 0  9994
2 33591  99.0094 128.6143 0012781 274.8953  85.0760 14.13301058828534
GOES 14                 
1 35491U 09033A   25064.39836321 -.00000076  00000+0  00000+0 0  9991
2 35491   0.4652  89.6444 0001268 174.3081 294.8265  1.00268228 57453
DMSP 5D-3 F18 (USA 210) 
1 35951U 09057A   25064.52173926  .00000473  00000+0  26944-3 0  9997
2 35951  98.8504  42.8867 0011734 138.6664 221.5399 14.14528335793303
EWS-G2 (GOES 15)        
1 36411U 10008A   25064.05114441  .00000033  00000+0  00000+0 0  9995
2 36411   0.0658  94.7188 0004055 186.2503 321.7883  1.00270137 54925
COMS 1                  
1 36744U 10032A   25063.90600160 -.00000350  00000+0  00000+0 0  9995
2 36744   3.6007  81.4655 0000930 261.6922 274.0482  1.00270201 46382
FENGYUN 3B              
1 37214U 10059A   25064.57585373  .00000162  00000+0  10735-3 0  9999
2 37214  99.0270 101.9749 0023088  74.8481  78.2567 14.14688443741202
SUOMI NPP               
1 37849U 11061A   25064.47038722  .00000202  00000+0  11669-3 0  9999
2 37849  98.7493   4.8445 0000891 155.9154 204.2064 14.19567085691938
METEOSAT-10 (MSG-3)     
1 38552U 12035B   25064.31433586 -.00000014  00000+0  00000+0 0  9998
2 38552   3.5638  62.0289 0001834 246.9242 327.4591  1.00272199 46510
METOP-B                 
1 38771U 12049A   25064.45683589  .00000221  00000+0  12054-3 0  9996
2 38771  98.5913 121.3204 0000348 105.4634 254.6582 14.21445217646665
INSAT-3D                
1 39216U 13038B   25064.50461367 -.00000347  00000+0  00000+0 0  9998
2 39216   0.7119  89.0590 0002049 218.9133 166.5902  1.00266124 42607
FENGYUN 3C              
1 39260U 13052A   25064.52177192  .00000256  00000+0  15198-3 0  9991
2 39260  98.4489  56.4423 0013625 295.3806  64.5958 14.15573376592328
METEOR-M 2              
1 40069U 14037A   25064.52511975  .00000294  00000+0  15396-3 0  9997
2 40069  98.4614  53.4151 0005087 329.7619  30.3265 14.21233248552741
HIMAWARI-8              
1 40267U 14060A   25064.49211370 -.00000284  00000+0  00000+0 0  9997
2 40267   0.0326 287.4851 0000707  56.0089 137.7641  1.00267213 38168
FENGYUN 2G              
1 40367U 14090A   25063.41950322 -.00000304  00000+0  00000+0 0  9992
2 40367   4.4436  78.5105 0001048 130.3440 203.9509  1.00263488 37287
METEOSAT-11 (MSG-4)     
1 40732U 15034A   25063.54443714  .00000057  00000+0  00000+0 0  9997
2 40732   2.0262  72.1556 0000795 292.2003   3.5904  1.00265137 35302
ELEKTRO-L 2             
1 41105U 15074A   25064.53566769 -.00000125  00000+0  00000+0 0  9999
2 41105   5.5079  76.2855 0003290 221.2707  44.2497  1.00271954 33811
INSAT-3DR               
1 41752U 16054A   25063.60044830 -.00000082  00000+0  00000+0 0  9995
2 41752   0.0199 114.3505 0012711 166.5361 171.8546  1.00271562 31100
HIMAWARI-9              
1 41836U 16064A   25063.78483980 -.00000281  00000+0  00000+0 0  9992
2 41836   0.0136 163.0291 0001065 176.4404 246.5941  1.00271794 30504
GOES 16                 
1 41866U 16071A   25064.29142098 -.00000255  00000+0  00000+0 0  9993
2 41866   0.0855 286.6621 0001764  71.3858 194.9032  1.00269288 30395
FENGYUN 4A              
1 41882U 16077A   25061.57118909 -.00000177  00000+0  00000+0 0  9992
2 41882   1.1166  85.2546 0004587 171.9729 252.9301  1.00661053 30209
CYGFM05                 
1 41884U 16078A   25064.19693404  .00019038  00000+0  51161-3 0  9997
2 41884  34.9622  76.9961 0007552  76.2587 283.8971 15.36976550456229
CYGFM04                 
1 41885U 16078B   25063.67878870  .00017891  00000+0  46122-3 0  9998
2 41885  34.9375  61.2258 0006486  95.1175 265.0284 15.38268496456166
CYGFM02                 
1 41886U 16078C   25064.19388978  .00022031  00000+0  54846-3 0  9996
2 41886  34.9461  58.9534 0008354  89.7615 270.4061 15.39288683456419
CYGFM01                 
1 41887U 16078D   25063.75201627  .00017104  00000+0  45526-3 0  9993
2 41887  34.9452  83.8243 0007145  54.0487 306.0893 15.37289740455986
CYGFM08                 
1 41888U 16078E   25064.17992304  .00020602  00000+0  53398-3 0  9993
2 41888  34.9482  66.6677 0008963  86.2780 273.8963 15.38064708456281
CYGFM07                 
1 41890U 16078G   25064.15617197  .00021219  00000+0  54186-3 0  9999
2 41890  34.9501  57.3281 0007060 108.9355 251.2130 15.38530454456407
CYGFM03                 
1 41891U 16078H   25063.69448057  .00018504  00000+0  47608-3 0  9999
2 41891  34.9454  61.7632 0005797  83.0791 277.0587 15.38329583456160
FENGYUN 3D              
1 43010U 17072A   25064.53625712  .00000209  00000+0  12068-3 0  9993
2 43010  98.9505  27.2581 0001086 355.3267   4.7898 14.19577184378491
NOAA 20 (JPSS-1)        
1 43013U 17073A   25064.48644976  .00000182  00000+0  10728-3 0  9995
2 43013  98.7333   4.3419 0001351 138.1066 222.0214 14.19565012377972
GOES 17                 
1 43226U 18022A   25063.93795072 -.00000098  00000+0  00000+0 0  9994
2 43226   0.0155 330.8486 0001150 107.0737 318.2399  1.00271538 25733
FENGYUN 2H              
1 43491U 18050A   25064.38794534 -.00000133  00000+0  00000+0 0  9991
2 43491   1.8206  84.5897 0001106 177.2728 120.1051  1.00275583 24819
METOP-C                 
1 43689U 18087A   25064.42341428  .00000214  00000+0  11770-3 0  9994
2 43689  98.6865 126.1576 0002385  81.1770 278.9678 14.21516089328236
GEO-KOMPSAT-2A          
1 43823U 18100A   25064.50461367 -.00000351  00000+0  00000+0 0  9997
2 43823   0.0353   8.7488 0001231  31.0025  73.6464  1.00271479 22966
METEOR-M2 2             
1 44387U 19038A   25064.52937549  .00000250  00000+0  12820-3 0  9990
2 44387  98.8649  41.3169 0000497 351.9493   8.1677 14.24153668294587
ARKTIKA-M 1             
1 47719U 21016A   25063.44954264  .00000077  00000+0  00000+0 0  9994
2 47719  63.1337 120.9032 7055401 268.5046  17.0510  2.00626230 29368
FENGYUN 3E              
1 49008U 21062A   25064.51664159  .00000046  00000+0  42606-4 0  9997
2 49008  98.7429  68.4113 0001930  35.2469 324.8835 14.19846236190071
GOES 18                 
1 51850U 22021A   25064.53725145  .00000089  00000+0  00000+0 0  9990
2 51850   0.0054 273.9124 0000208 100.7143 205.2817  1.00272006 11100
NOAA 21 (JPSS-2)        
1 54234U 22150A   25064.52309538  .00000199  00000+0  11498-3 0  9994
2 54234  98.7188   4.8299 0002729  93.9323 266.2165 14.19548633120052
METEOSAT-12 (MTG-I1)    
1 54743U 22170C   25063.88378002 -.00000012  00000+0  00000+0 0  9999
2 54743   0.6622  42.2969 0001905 266.8519 171.6238  1.00273175  8265
TIANMU-1 03             
1 55973U 23039A   25064.47104357  .00017814  00000+0  57975-3 0  9990
2 55973  97.4898 221.6018 0003870 345.4513  14.6617 15.31920664108729
TIANMU-1 04             
1 55974U 23039B   25064.43169890  .00018718  00000+0  60538-3 0  9993
2 55974  97.4825 220.9139 0004721 340.3490  19.7569 15.32106410108717
TIANMU-1 05             
1 55975U 23039C   25064.43937039  .00018957  00000+0  61698-3 0  9995
2 55975  97.4871 221.3574 0003756   5.7964 354.3320 15.31906180108705
TIANMU-1 06             
1 55976U 23039D   25064.44768125  .00018729  00000+0  60400-3 0  9992
2 55976  97.4886 221.6265 0004147   2.1293 357.9966 15.32201948108710
METEOR-M2 3             
1 57166U 23091A   25064.43990635  .00000044  00000+0  38217-4 0  9998
2 57166  98.6752 122.2784 0005104  93.4342 266.7421 14.23981157 87807
TIANMU-1 07             
1 57399U 23101A   25064.56731532  .00009889  00000+0  42056-3 0  9992
2 57399  97.3250 120.9092 0004212  14.7186 345.4172 15.23211546 90139
TIANMU-1 08             
1 57400U 23101B   25064.53398082  .00009090  00000+0  38654-3 0  9994
2 57400  97.3238 120.7178 0006387  12.6073 347.5323 15.23227033 90126
TIANMU-1 09             
1 57401U 23101C   25064.51821204  .00009738  00000+0  41359-3 0  9995
2 57401  97.3193 120.3875 0006078  10.1854 349.9505 15.23252028 90124
TIANMU-1 10             
1 57402U 23101D   25064.48452907  .00009965  19818-7  42087-3 0  9998
2 57402  97.3275 120.9070 0007992   5.0670 355.0646 15.23274055 90111
FENGYUN 3F              
1 57490U 23111A   25064.52077941  .00000140  00000+0  86377-4 0  9994
2 57490  98.7367 136.8585 0001818  80.6444 279.4938 14.20002694 82355
ARKTIKA-M 2             
1 58584U 23198A   25062.19393504  .00000162  00000+0  00000+0 0  9999
2 58584  63.2359 206.0334 6889758 269.2176  18.1238  2.00607671  8866
TIANMU-1 11             
1 58645U 23205A   25064.47422943  .00009364  00000+0  43164-3 0  9994
2 58645  97.3834  89.4631 0009572 204.4717 155.6065 15.20439698 66145
TIANMU-1 12             
1 58646U 23205B   25064.55760147  .00008951  00000+0  41266-3 0  9997
2 58646  97.3820  89.4218 0007907 194.0020 166.0997 15.20461518 66149
TIANMU-1 13             
1 58647U 23205C   25064.52344538  .00008862  00000+0  40824-3 0  9997
2 58647  97.3850  89.4862 0008934 174.5807 185.5526 15.20484148 66132
TIANMU-1 14             
1 58648U 23205D   25064.57393774  .00008314  00000+0  38334-3 0  9994
2 58648  97.3776  89.1446 0009383 178.8434 181.2824 15.20466870 66144
TIANMU-1 19             
1 58660U 23208A   25064.49688867  .00012200  00000+0  53990-3 0  9996
2 58660  97.4180 177.7577 0006489 164.7573 195.3860 15.21792957 65817
TIANMU-1 20             
1 58661U 23208B   25064.50881736  .00012730  00000+0  54323-3 0  9998
2 58661  97.4116 177.9429 0008949 176.8931 183.2363 15.23004570 65857
TIANMU-1 21             
1 58662U 23208C   25064.49063315  .00013770  00000+0  55996-3 0  9994
2 58662  97.4154 178.7950 0008497 176.0552 184.0754 15.24620641 65898
TIANMU-1 22             
1 58663U 23208D   25064.48596573  .00011934  00000+0  52664-3 0  9990
2 58663  97.4172 177.8519 0004612 185.0284 175.0907 15.21904850 65824
TIANMU-1 15             
1 58700U 24004A   25064.50544888  .00010984  00000+0  50540-3 0  9997
2 58700  97.4644 247.8547 0007366 207.3353 152.7495 15.20478607 64405
TIANMU-1 16             
1 58701U 24004B   25064.48939189  .00010541  00000+0  48560-3 0  9995
2 58701  97.4574 247.4719 0007596 210.4979 149.5815 15.20448197 64400
TIANMU-1 17             
1 58702U 24004C   25064.47717720  .00010261  00000+0  47399-3 0  9998
2 58702  97.4613 247.7252 0005567 203.2127 156.8858 15.20373108 64396
TIANMU-1 18             
1 58703U 24004D   25064.45680547  .00010635  00000+0  49035-3 0  9997
2 58703  97.4631 247.8426 0005844 194.6896 165.4170 15.20424302 64391
INSAT-3DS               
1 58990U 24033A   25064.38794534 -.00000162  00000+0  00000+0 0  9991
2 58990   0.0528 266.0491 0002004  78.2331  40.8030  1.00271625  4122
METEOR-M2 4             
1 59051U 24039A   25064.55213236  .00000096  00000+0  62468-4 0  9996
2 59051  98.6376  26.5359 0008212  86.9938 273.2180 14.22341581 52648
GOES 19                 
1 60133U 24119A   25064.10392083 -.00000189  00000+0  00000+0 0  9990
2 60133   0.0212 331.1074 0001981  18.1584 121.7425  1.00270298  2604
